BEIDOU 17               
1 40549U 15019A   21167.38244012 -.00000173  00000-0  00000-0 0  9991
2 40549  52.4983 317.0012 0038487 186.8533 354.6633  1.00266005 22760
THOR 7                  
1 40613U 15022A   21167.55431566  .00000000  00000-0  00000-0 0  9996
2 40613   0.0335 132.3935 0002498 309.3232  22.2197  1.00271324 22511
TURKMENALEM52E/MONACOSAT
1 40617U 15023A   21167.52479938  .00000111  00000-0  00000-0 0  9996
2 40617   0.0018   1.7592 0002704  82.2027  62.0037  1.00273903 22521
DIRECTV 15              
1 40663U 15026A   21167.61620900 -.00000095  00000-0  00000-0 0  9999
2 40663   0.0242  76.7422 0001362 130.6462 176.6756  1.00271815 22143
SKY MEXICO-1            
1 40664U 15026B   21167.53870042 -.00000226  00000-0  00000-0 0  9991
2 40664   0.0109 320.9039 0001966 123.0686 296.2104  1.00270080 22158
METEOSAT-11 (MSG-4)     
1 40732U 15034A   21167.33911691  .00000003  00000-0  00000-0 0  9992
2 40732   0.1220 161.4522 0000664 251.6005 333.7828  1.00266011 21700
STAR ONE C4             
1 40733U 15034B   21167.54035789 -.00000257  00000-0  00000-0 0  9993
2 40733   0.0515  68.8982 0002791   2.7178 317.9262  1.00269641 21704
WGS F7 (USA 263)        
1 40746U 15036A   21167.58932420  .00000025  00000-0  00000-0 0  9993
2 40746   0.0357 301.2583 0000386  50.8914 300.0518  1.00268429 21567
INTELSAT 34 (IS-34)     
1 40874U 15039A   21167.54332392 -.00000277  00000-0  00000-0 0  9996
2 40874   0.0171 305.8783 0000684  41.4338  57.8259  1.00269973 21319
EUTELSAT 8 WEST B       
1 40875U 15039B   21167.40926955 -.00000058  00000-0  00000-0 0  9993
2 40875   0.0633  13.2190 0005872  67.5675 323.4291  1.00271662 21330
GSAT-6                  
1 40880U 15041A   21167.57076183 -.00000152  00000-0  00000-0 0  9994
2 40880   0.0134  82.1748 0002927  21.3795  89.4194  1.00269665 21314
INMARSAT 5-F3           
1 40882U 15042A   21167.43006128  .00000058  00000-0  00000-0 0  9998
2 40882   0.0178  13.0858 0000122  86.5549 139.6931  1.00272767 21251
MUOS-4                  
1 40887U 15044A   21167.56936605 -.00000087  00000-0  00000-0 0  9994
2 40887   2.6559 354.1482 0054595   3.5583 187.3422  1.00271777 21243
TJS-1                   
1 40892U 15046A   21167.63302840 -.00000149  00000-0  00000-0 0  9997
2 40892   0.0862 265.6090 0004294 134.4588 247.8482  1.00274850 21242
EXPRESS-AM8             
1 40895U 15048A   21167.40804824 -.00000103  00000-0  00000-0 0  9996
2 40895   0.0420 196.7095 0000360 255.5757 305.5063  1.00271723 21060
BEIDOU 20               
1 40938U 15053A   21167.28619441 -.00000142  00000-0  00000-0 0  9998
2 40938  52.0655 280.0771 0047178 191.6786 352.0132  1.00283548 21032
SKY MUSTER 1 (NBN1A)    
1 40940U 15054A   21167.58234532 -.00000271  00000-0  00000-0 0  9992
2 40940   0.0181 325.5786 0001603 119.8958 169.4853  1.00271036 20947
ARSAT 2                 
1 40941U 15054B   21167.53826424 -.00000217  00000-0  00000-0 0  9995
2 40941   0.0422  94.6467 0001708 343.9876 299.1562  1.00271012 21001
MORELOS 3               
1 40946U 15056A   21167.60663330 -.00000037  00000-0  00000-0 0  9995
2 40946   4.2519 330.6969 0002136 174.0447 225.6445  1.00270637 20973
APSTAR 9                
1 40982U 15059A   21167.58799539 -.00000258  00000-0  00000-0 0  9991
2 40982   0.0602 118.4374 0001695 321.8730 178.4409  1.00270593 20839
TURKSAT 4B              
1 40984U 15060A   21167.56443503  .00000122  00000-0  00000-0 0  9999
2 40984   0.0239  73.7512 0001877  17.0933  67.4004  1.00270413 20799
CHINASAT 2C (ZX 2C)     
1 41021U 15063A   21167.28793913 -.00000315  00000-0  00000+0 0  9991
2 41021   0.0529 115.1439 0002459 335.2742  21.3969  1.00268257 20694
GSAT-15                 
1 41028U 15065A   21167.57309833 -.00000250  00000-0  00000-0 0  9995
2 41028   0.0801 270.8822 0004163 157.3022 136.6640  1.00270997 20495
BADR-7 (ARABSAT-6B)     
1 41029U 15065B   21167.55954980  .00000152  00000-0  00000-0 0  9993
2 41029   0.0404 247.3053 0003150 321.4690 283.6843  1.00271582 20455
LAOSAT 1                
1 41034U 15067A   21167.58007719 -.00000335  00000-0  00000-0 0  9997
2 41034   0.0333 204.0633 0001426 207.6649 190.6857  1.00272095 20541
TELSTAR 12V             
1 41036U 15068A   21167.40787378 -.00000111  00000-0  00000-0 0  9999
2 41036   0.0141 305.9145 0001849 139.0554 311.7699  1.00271110 20302
CHINASAT 1C (ZX 1C)     
1 41103U 15073A   21167.57067459 -.00000142  00000-0  00000-0 0  9993
2 41103   2.4922  88.9300 0002277 356.2103 106.7245  1.00271213 20347
ELEKTRO-L 2             
1 41105U 15074A   21167.40796101 -.00000107  00000-0  00000-0 0  9992
2 41105   2.0807  92.5120 0001752  45.6145 259.1317  1.00273199 20191
COSMOS 2513             
1 41121U 15075A   21167.49865912 -.00000131  00000-0  00000-0 0  9994
2 41121   0.0737 106.1548 0002439 355.4072  63.1900  1.00272336 20215
EXPRESS-AMU1            
1 41191U 15082A   21167.56164347  .00000163  00000-0  00000-0 0  9995
2 41191   0.0177  15.9709 0002714  73.5159  53.8390  1.00270932 19965
GAOFEN 4                
1 41194U 15083A   21167.62410546 -.00000327  00000-0  00000-0 0  9994
2 41194   0.0604  74.5636 0000900 306.3158 214.5531  1.00267179 20171
BELINTERSAT-1           
1 41238U 16001A   21167.56469674  .00000114  00000-0  00000-0 0  9996
2 41238   0.0142 102.3449 0002582  41.4075  16.0702  1.00273378 19948
IRNSS-1E                
1 41241U 16003A   21166.71531617 -.00000294  00000-0  00000-0 0  9995
2 41241  29.1717  90.3895 0018833 181.5406   1.4592  1.00267241 19759
EUTELSAT 9B             
1 41310U 16005A   21167.55623484  .00000070  00000-0  00000-0 0  9992
2 41310   0.0529  70.5386 0000967 214.1958 189.5680  1.00273869 19809
SES-9                   
1 41380U 16013A   21167.57597712 -.00000338  00000-0  00000-0 0  9992
2 41380   0.0238 295.8195 0002053 146.6175 138.2726  1.00271023 19128
EUTELSAT 65 WEST A      
1 41382U 16014A   21167.54140473 -.00000268  00000-0  00000-0 0  9992
2 41382   0.0494  21.3504 0001933  64.1600 309.2376  1.00271939 19221
IRNSS-1F                
1 41384U 16015A   21167.56094559  .00000169  00000-0  00000-0 0  9999
2 41384   1.9465 187.7872 0019927 188.9537 122.6321  1.00270475 19346
BEIDOU IGSO-6           
1 41434U 16021A   21167.11866853 -.00000169  00000-0  00000+0 0  9997
2 41434  57.5593  56.6567 0038034 214.3331 132.8929  1.00269590 19154
IRNSS-1G                
1 41469U 16027A   21167.60151980 -.00000325  00000-0  00000-0 0  9998
2 41469   1.9276 191.3871 0006892 264.6364 155.1353  1.00272123 18861
JCSAT-2B                
1 41471U 16028A   21167.63302854 -.00000158  00000-0  00000-0 0  9997
2 41471   0.0148 344.0985 0001905  94.7644 208.1443  1.00271402 18800
THAICOM 8               
1 41552U 16031A   21167.57006394 -.00000114  00000-0  00000-0 0  9996
2 41552   0.0874  74.8852 0004470 353.9684 119.9651  1.00270570 18402
INTELSAT 31 (IS-31)     
1 41581U 16035A   21167.53547269 -.00000142  00000-0  00000-0 0  9990
2 41581   0.0188 266.6226 0002221 312.9229 143.1821  1.00269321 18286
BEIDOU-2 G7             
1 41586U 16037A   21167.57650052 -.00000347  00000-0  00000-0 0  9993
2 41586   1.6977  67.0787 0009391  18.1993 137.8797  1.00268871 18479
ABS-2A (MONGOLSAT-1)    
1 41588U 16038A   21167.49752505 -.00000076  00000-0  00000-0 0  9992
2 41588   0.0204 348.3514 0002691  19.2365 151.2240  1.00269601 18397
EUTELSAT 117 WEST B     
1 41589U 16038B   21167.41545424 -.00000004  00000-0  00000-0 0  9996
2 41589   0.0107 158.5064 0000328 320.1310 178.8123  1.00272857 18358
BRISAT                  
1 41591U 16039A   21167.62886719 -.00000189  00000-0  00000-0 0  9992
2 41591   0.0185   6.3951 0002120  72.3286 203.2752  1.00270617 18300
ECHOSTAR 18             
1 41592U 16039B   21167.46168736 -.00000274  00000-0  00000-0 0  9992
2 41592   0.0181   4.4960 0001404  77.1620 288.1442  1.00271798 18315
MUOS-5                  
1 41622U 16041A   21167.61300946 -.00000111  00000-0  00000-0 0  9997
2 41622   6.4516 303.9966 0200286 225.4686 211.3043  1.00271116 18772
TIANTONG-1 1            
1 41725U 16048A   21167.50284644 -.00000312  00000-0  00000-0 0  9995
2 41725   2.5423 343.6748 0004183  90.3619 113.3980  1.00273025 17953
JCSAT-16                
1 41729U 16050A   21167.50738271 -.00000349  00000-0  00000-0 0  9992
2 41729   0.0531  84.0307 0001180 192.1226 295.4744  1.00270641 17755
USA 271                 
1 41745U 16052B   21153.45819031 -.00000369  00000-0  00000+0 0  9996
2 41745   9.8711  56.9555 0918615 144.4343 154.8545  1.00399259   287
INTELSAT 36 (IS-36)     
1 41747U 16053A   21166.77856222 -.00000016  00000-0  00000-0 0  9991
2 41747   0.0113 357.7266 0002207  12.5000 242.8251  1.00271682 17644
INTELSAT 33E (IS-33E)   
1 41748U 16053B   21167.19077294  .00000056  00000-0  00000-0 0  9996
2 41748   0.0185 357.4707 0001653 107.9334 287.9742  1.00273880 17922
INSAT-3DR               
1 41752U 16054A   21167.58558604 -.00000070  00000-0  00000-0 0  9991
2 41752   0.0909 101.5495 0009552 170.0072 278.3394  1.00271183 17492
GSAT-18                 
1 41793U 16060A   21167.58271429 -.00000070  00000-0  00000-0 0  9990
2 41793   0.0657 105.1689 0002978 307.3772 136.2847  1.00272340 17221
SKY MUSTER 2 (NBN1B)    
1 41794U 16060B   21167.62295032 -.00000237  00000-0  00000-0 0  9997
2 41794   0.0174 323.6781 0001551 118.0460 192.4421  1.00269647 17209
HIMAWARI-9              
1 41836U 16064A   21167.51069767 -.00000267  00000-0  00000-0 0  9993
2 41836   0.0156  70.1617 0001253  42.7816 116.6612  1.00271677 16873
SHIJIAN-17 (SJ-17)      
1 41838U 16065A   21167.69358696 -.00000355  00000-0  00000+0 0  9994
2 41838   1.1206  93.0088 0005313 358.1417 181.2422  1.00269672 16915
GOES 16                 
1 41866U 16071A   21167.53939830 -.00000240  00000-0  00000-0 0  9994
2 41866   0.0765 100.8420 0001141  31.6896 251.4191  1.00272437 16792
